*******************************************************************************
Ephemeris / PORT_LOGIN Wed Sep  9 17:13:59 2015 Pasadena, USA    / Horizons    
*******************************************************************************
Target body name: Mimas (601)                     {source: SAT375}
Center body name: Saturn (699)                    {source: SAT375}
Center-site name: BODY CENTER
*******************************************************************************
Start time      : A.D. 1900-Jan-01 00:00:00.0000 CT 
Stop  time      : A.D. 2099-Dec-31 00:00:00.0000 CT 
Step-size       : 14400 minutes
*******************************************************************************
Center geodetic : 0.00000000,0.00000000,0.0000000 {E-lon(deg),Lat(deg),Alt(km)}
Center cylindric: 0.00000000,0.00000000,0.0000000 {E-lon(deg),Dxy(km),Dz(km)}
Center pole/equ : IAU_SATURN                      {East-longitude -}
Center radii    : 60268.0 x 60268.0 x 54364.0 km  {Equator, meridian, pole}    
Output units    : AU-D                                                         
Output format   : 03
Output type     : GEOMETRIC cartesian states
Coordinate systm: Body Mean Equator and Node of Date                           
*******************************************************************************
JDCT 
   X     Y     Z
   VX    VY    VZ
   LT    RG    RR
*******************************************************************************
$$SOE
2459350.500000000 = A.D. 2021-May-16 00:00:00.0000 (CT)
  -2.887819936299183E-04 -1.225123392451691E-03 -1.977805682412536E-05
   7.948128202051190E-03 -1.772527326458400E-03  1.851431106845454E-04
   7.270534685751832E-06  1.258854057509824E-03 -1.011820128110442E-04
2459360.500000000 = A.D. 2021-May-26 00:00:00.0000 (CT)
  -6.189142370773609E-04  1.065768352491818E-03 -1.071434560134208E-05
  -7.267395518611139E-03 -4.045762070744812E-03 -2.183003950267523E-04
   7.118269083000682E-06  1.232490085652555E-03  1.528517951578815E-04
2459370.500000000 = A.D. 2021-Jun-05 00:00:00.0000 (CT)
   1.126587116930965E-03 -5.089154751037880E-04  3.048577172329501E-05
   3.266324854310004E-03  7.622192579277596E-03  9.604663291001148E-05
   7.141873594548222E-06  1.236577080133908E-03 -1.587642247838032E-04
2459380.500000000 = A.D. 2021-Jun-15 00:00:00.0000 (CT)
  -1.183645942693531E-03 -4.186332281369128E-04 -3.048239592118790E-05
   2.606148099267980E-03 -7.737384708657093E-03  1.017077202662472E-04
   7.253280010969233E-06  1.255866503182678E-03  1.204502379707966E-04
2459390.500000000 = A.D. 2021-Jun-25 00:00:00.0000 (CT)
   6.660470013959804E-04  1.019461662634553E-03  8.578178374458155E-06
  -7.077371855068648E-03  4.555594691213398E-03 -2.242409929868615E-04
   7.033325288776331E-06  1.217782523603623E-03 -5.873934096562423E-05
2459400.500000000 = A.D. 2021-Jul-05 00:00:00.0000 (CT)
   1.577069470738874E-04 -1.254041172803248E-03  2.011701897549423E-05
   8.042449988790461E-03  1.038546095930067E-03  1.813605181296249E-04
   7.300710798264904E-06  1.264078889426437E-03 -2.403401931107212E-05
2459410.500000000 = A.D. 2021-Jul-15 00:00:00.0000 (CT)
  -9.191317654156468E-04  8.039368678060593E-04 -3.347146840044508E-05
  -5.603698633247414E-03 -6.249707905150411E-03 -1.454227625447243E-05
   7.055211189883574E-06  1.221571949911581E-03  1.036808114445012E-04
2459420.500000000 = A.D. 2021-Jul-25 00:00:00.0000 (CT)
   1.244936898596472E-03 -1.038780305097815E-04  2.488287318448255E-05
   5.381941174087999E-04  8.187894749675557E-03 -1.582199267084976E-04
   7.216573558643639E-06  1.249510977977988E-03 -1.476270596021093E-04
2459430.500000000 = A.D. 2021-Aug-04 00:00:00.0000 (CT)
  -9.613884422325345E-04 -7.898210428701246E-04  4.549684421011814E-06
   5.107083919404994E-03 -6.465260209389862E-03  2.252464085898603E-04
   7.186067193314262E-06  1.244228964558807E-03  1.587584866468040E-04
2459440.500000000 = A.D. 2021-Aug-14 00:00:00.0000 (CT)
   3.110103577826049E-04  1.185011731401841E-03 -2.703563942728162E-05
  -8.125544243590115E-03  1.994777553903605E-03 -1.339377126814133E-04
   7.077569985231814E-06  1.225443255319191E-03 -1.302977735326867E-04
2459450.500000000 = A.D. 2021-Aug-24 00:00:00.0000 (CT)
   5.899172421195162E-04 -1.116234221380128E-03  3.329653414014838E-05
   7.205237861079770E-03  3.740382296828519E-03 -6.029393872042157E-05
   7.294298676609647E-06  1.262968664977775E-03  5.807250005774631E-05
2459460.500000000 = A.D. 2021-Sep-03 00:00:00.0000 (CT)
  -1.121823349163477E-03  4.690754394989641E-04 -1.382754101190881E-05
  -3.276197926192532E-03 -7.766330354066686E-03  2.107904060795628E-04
   7.023159943472594E-06  1.216022448625001E-03  2.418194911124888E-05
2459470.500000000 = A.D. 2021-Sep-13 00:00:00.0000 (CT)
   1.213625351222555E-03  3.371386203420114E-04 -1.390528453319311E-05
  -2.274521752635614E-03  7.813267676920869E-03 -2.038590453073602E-04
   7.275187091734791E-06  1.259659596634795E-03 -9.798540672883569E-05
2459480.500000000 = A.D. 2021-Sep-23 00:00:00.0000 (CT)
  -6.341625114973467E-04 -1.055266037477152E-03  3.294381178303770E-05
   7.056998997145665E-03 -4.418739301972804E-03  5.483787211057254E-05
   7.113117205741345E-06  1.231598065756904E-03  1.538390486137985E-04
2459490.500000000 = A.D. 2021-Oct-03 00:00:00.0000 (CT)
  -9.872339492151823E-05  1.232830516744307E-03 -2.853977262039322E-05
  -8.247846581488100E-03 -8.205315091735702E-04  1.270345024189940E-04
   7.144929910135476E-06  1.237106264773600E-03 -1.624326144640875E-04
2459500.500000000 = A.D. 2021-Oct-13 00:00:00.0000 (CT)
   9.411234673835579E-04 -8.315075392288078E-04  1.968803687845930E-06
   5.497339297947869E-03  6.033336846337844E-03 -2.239379760126795E-04
   7.253099208017965E-06  1.255835198122094E-03  1.245936229153870E-04
2459510.500000000 = A.D. 2021-Oct-23 00:00:00.0000 (CT)
  -1.214082851155546E-03  8.734441647816087E-05  2.321884969435338E-05
  -5.394950546747219E-04 -8.403126450494772E-03  1.652175928509738E-04
   7.031359319453811E-06  1.217442126567427E-03 -6.171818614774260E-05
2459520.500000000 = A.D. 2021-Nov-02 00:00:00.0000 (CT)
   1.017869678148480E-03  7.494308556587083E-04 -3.456731626918003E-05
  -4.826276367893527E-03  6.515829817382877E-03  1.825104603930179E-05
   7.303005765304034E-06  1.264476250651426E-03 -2.371523193168826E-05
2459530.500000000 = A.D. 2021-Nov-12 00:00:00.0000 (CT)
  -2.518964970045320E-04 -1.194949005922166E-03  1.860228834222541E-05
   8.189937896542519E-03 -1.836754417317038E-03 -1.903124962313269E-04
   7.053941596173040E-06  1.221352126574926E-03  1.050237253871294E-04
2459540.500000000 = A.D. 2021-Nov-22 00:00:00.0000 (CT)
  -5.178303180066292E-04  1.137119624295524E-03  7.496654338669507E-06
  -7.402915214700939E-03 -3.536397244487934E-03  2.192085015414196E-04
   7.216499126473128E-06  1.249498090447166E-03 -1.490273872898459E-04
2459550.500000000 = A.D. 2021-Dec-02 00:00:00.0000 (CT)
   1.159114248170307E-03 -4.516136645068396E-04 -3.137870397684082E-05
   3.137115509559201E-03  7.620042667901091E-03 -9.291734844193457E-05
   7.186948275481580E-06  1.244381519207023E-03  1.590151535149812E-04
2459560.500000000 = A.D. 2021-Dec-12 00:00:00.0000 (CT)
  -1.185269472533506E-03 -3.094701432662105E-04  3.097481322859497E-05
   2.236474886336631E-03 -8.063291100666916E-03 -9.229959447995936E-05
   7.077296058142513E-06  1.225395826313935E-03 -1.292125499712840E-04
2459570.500000000 = A.D. 2021-Dec-22 00:00:00.0000 (CT)
   6.855003526765015E-04  1.060523484192312E-03 -8.800094755687241E-06
  -6.784601625397845E-03  4.455263606717629E-03  2.154300399907560E-04
   7.293403204302348E-06  1.262813618754057E-03  5.714942440806334E-05
2459580.500000000 = A.D. 2022-Jan-01 00:00:00.0000 (CT)
   1.379892761973510E-04 -1.208340613360714E-03 -1.897113318015059E-05
   8.375319678669958E-03  9.354371602731374E-04 -1.909061732164134E-04
   7.025005805976643E-06  1.216342049810231E-03  2.384139791744909E-05
2459590.500000000 = A.D. 2022-Jan-11 00:00:00.0000 (CT)
  -8.859519237884925E-04  8.944744605931448E-04  3.425906009525638E-05
  -5.716331515241166E-03 -5.797420925305183E-03  2.514931081487722E-05
   7.273872815275049E-06  1.259432036719941E-03 -9.558948541284009E-05
2459600.500000000 = A.D. 2022-Jan-21 00:00:00.0000 (CT)
   1.230543365789782E-03 -4.205000838952527E-05 -2.336927979980962E-05
   4.375924251812842E-04  8.314167336461913E-03  1.622862870564709E-04
   7.112454803963990E-06  1.231483374444481E-03  1.502847213915019E-04
2459610.500000000 = A.D. 2022-Jan-31 00:00:00.0000 (CT)
  -1.030850134724072E-03 -6.848827530931791E-04 -1.029974129736879E-06
   4.715870152080134E-03 -6.809452989360540E-03 -2.274634881197976E-04
   7.147930088818668E-06  1.237625729609658E-03 -1.595346516876817E-04
2459620.500000000 = A.D. 2022-Feb-10 00:00:00.0000 (CT)
   2.729072441410105E-04  1.224694598558677E-03  2.839126872422445E-05
  -7.946454008182873E-03  1.895780663859688E-03  1.296765375773837E-04
   7.248589097811308E-06  1.255054296747042E-03  1.249261939076541E-04
2459630.500000000 = A.D. 2022-Feb-20 00:00:00.0000 (CT)
   5.082851867838674E-04 -1.106547609291322E-03 -3.256378781603467E-05
   7.621783037996245E-03  3.571740772419219E-03  5.305557280076481E-05
   7.035382274905995E-06  1.218138679711460E-03 -6.566533793088425E-05
2459640.500000000 = A.D. 2022-Mar-02 00:00:00.0000 (CT)
  -1.147723871077649E-03  5.299889650724680E-04  1.554858683107833E-05
  -3.385155699077240E-03 -7.366946467515482E-03 -1.994541105801670E-04
   7.301863699228310E-06  1.264278508040255E-03 -1.762076973768402E-05
2459650.500000000 = A.D. 2022-Mar-12 00:00:00.0000 (CT)
   1.169302363309153E-03  3.508380582675604E-04  1.407178203413963E-05
  -2.320597626266708E-03  8.069042824152127E-03  2.106250403623346E-04
   7.051227594608969E-06  1.220882211771037E-03  9.862613798287098E-05
